M 325.19873 +/- 0.0017              (J2000 ecliptic)
n   0.08267692 +/- 1.04e-7          Peri.  307.85632 +/- 0.0015
a   5.21850981 +/- 4.36e-6          Node    44.36721 +/- 0.0007
e   0.1399420 +/- 5.51e-6           Incl.   22.05269 +/- 0.00020
